,AddressType,AddressName,StreetAddress,StreetAddress2,Suburb,City,Region,Country,PostalCode,IsDefault,DeliveryInstruction,Guid
0,,,,,,,,,,False,,8bd5b1cd-3d9d-49d8-ab79-9b2cb24ab870
1,,,,,,,,,,False,,7deb9836-1941-458b-bde7-beef5f6af037
2,,,,,,,,,,False,,73ebefc8-6548-4ef6-a08a-f40565106fd3
3,,,,,,,,,,False,,9a2a6dad-970a-4668-8a24-3521e64bfaa2
4,,,,,,,,,,False,,21bbcdc7-3220-4eeb-98f9-583ddbc31b77
5,,,,,,,,,,False,,422b2acc-f283-42a0-8371-83d91fdc3361
6,,,,,,,,,,False,,d43458db-dad7-4ea0-8f22-20368f9db01c
7,,,,,,,,,,False,,138d3fe6-73be-4542-8058-355b56e71eeb
8,,,,,,,,,,False,,4b4c9f62-e62e-4847-bed9-de28ebf631e1
9,,,,,,,,,,False,,2963157b-d83b-455c-a53a-9d466f4a954a
10,,,,,,,,,,False,,0bf79d3a-265d-4aa1-864e-3e8e3df16b83
11,,,,,,,,,,False,,481a8c73-edcb-40cc-b6e4-b5a955367fa8
12,,,,,,,,,,False,,60b0455e-82a7-482d-926a-dc50537a8614
13,,,,,,,,,,False,,d1dbc8f8-d962-4162-b635-eb7361c3aa68
14,,,,,,,,,,False,,34f30f0e-bed0-4011-90a6-14a2b33452fa
15,,,,,,,,,,False,,dbd1a773-b43f-4cd5-ab99-cf217725f841
16,,,,,,,,,,False,,e991ce80-e5c2-45c8-940c-ad3ac21ceb5a
17,,,,,,,,,,False,,73fc0d84-5a37-4d86-a8ad-caf05fe5c37d
18,,,,,,,,,,False,,9906a067-50ee-439f-b583-b54246926629
19,,,,,,,,,,False,,885533f7-f55b-4bfa-b677-2d253a7ab393
20,,,,,,,,,,False,,2b8fbd3a-56f5-45fe-bea7-ab6a823147c8
21,,,,,,,,,,False,,8ebb8660-0208-4b3e-bd43-940b6b900b28
22,,,,,,,,,,False,,d8004a55-ff9b-4afb-919a-b1b08e8ab33c
23,,,,,,,,,,False,,98dffe88-1fa7-4c65-b223-3e02f9301495
24,,,,,,,,,,False,,0ef46fec-0271-455a-b012-6c3a5f3c8eb5
25,,,,,,,,,,False,,234e8a7b-7512-4e93-a8ed-f383832824f8
26,,,,,,,,,,False,,d4e2c4c1-2a98-4447-83bb-18063733e734
27,,,,,,,,,,False,,78183468-eb88-49e2-a3a9-5d487b1e5c60
28,,,,,,,,,,False,,7a3be0f0-7c37-4641-8de1-9b3fa46c9142
29,,,,,,,,,,False,,5d5a0fea-156b-4c36-9359-3a9ab6a38be5
30,,,,,,,,,,False,,ef84c962-e197-498e-839d-5cf197054074
31,,,,,,,,,,False,,ccc5d03d-b359-4873-90f4-57b7aa5706f6
32,,,,,,,,,,False,,34212cae-129d-4aab-83b6-d42071b9c251
33,,,,,,,,,,False,,ff9dccf5-dc8d-4040-8193-987b85ad2a64
34,,,,,,,,,,False,,574d1be4-4cad-4364-a452-cfba272ac05d
35,,,,,,,,,,False,,892e9dc7-088c-4770-bae3-ac4d91dde256
36,,,,,,,,,,False,,86120795-28cc-4d4c-b1d0-91e8825927f8
37,,,,,,,,,,False,,9fb4520d-89c8-4649-b00a-e1ad68149295
38,,,,,,,,,,False,,b1246f12-d13b-4582-9248-c14593a395f2
39,,,,,,,,,,False,,f3453b0d-00e2-4211-b1ee-478faa125e4c
40,,,,,,,,,,False,,0688f902-7d7e-4d88-8329-12b607ad9c21
41,,,,,,,,,,False,,f4cc033f-4335-478f-b007-adb8cb747d55
42,,,,,,,,,,False,,614abefc-82ce-4906-b3dd-bc889218173f
43,,,,,,,,,,False,,09cee18e-e98a-49ea-bc73-81573f3a0346
44,,,,,,,,,,False,,5e9b6d2b-f772-4508-9600-7af2d204d6ec
45,,,,,,,,,,False,,9ab67b7e-9ea7-42cf-b5f5-ab69cdd23c02
46,,,,,,,,,,False,,d727e46a-2661-4702-bea2-fd47e9ce1a2b
47,,,,,,,,,,False,,859d58d1-5f31-48df-9f23-336284270ab0
48,,,,,,,,,,False,,f0832f29-8f26-466a-bd46-2c2f1d15b351
49,,,,,,,,,,False,,2984c57d-8709-4e5c-b58c-a0804612ad91
50,,,,,,,,,,False,,8a162ba8-6f6d-4c6b-9281-9a46244c3dd0
51,,,,,,,,,,False,,5f80e798-1928-4d04-8acb-892143d0b920
52,,,,,,,,,,False,,404cecd7-1a0b-42c0-a544-bbba417dd0c8
53,,,,,,,,,,False,,e0499f13-bcfa-4d2b-bd3d-667b51abe426
54,,,,,,,,,,False,,e55df563-01bc-4082-a134-0c7ac775cd02
55,,,,,,,,,,False,,7f275d32-a723-476e-baad-6d2567410851
56,,,,,,,,,,False,,a0945bfe-91f1-4c0e-bd67-bf5eb9f937b2
57,,,,,,,,,,False,,66084510-e17f-4d58-9e13-8bb4a5a6cb0c
58,,,,,,,,,,False,,5ec794e8-b327-44c8-9877-1773b5ea447b
59,,,,,,,,,,False,,18f7ccf0-9ad7-483d-bd84-c5c9fb5c66e0
60,,,,,,,,,,False,,55c3df73-b7f1-4ecc-a383-dacd66480045
61,,,,,,,,,,False,,70e4fb05-2460-42cb-a443-cd7ac9b2d3a1
62,,,,,,,,,,False,,5d33ceac-f510-455f-a95e-65e9e4c7f19c
63,,,,,,,,,,False,,16e89c90-b082-47ab-beff-63daa43fe5aa
64,,,,,,,,,,False,,302845c9-fb59-4ffe-b595-adcdb09b4956
65,,,,,,,,,,False,,6fca8da5-52d8-45d5-8898-99a278493957
66,,,,,,,,,,False,,dca24b12-26ca-4b12-b831-d0e2240a20fa
67,,,,,,,,,,False,,fff45763-e29f-4617-96db-0c472848b8f1
68,,,,,,,,,,False,,5e786eba-f94f-4867-84df-840a34f4ed2a
69,,,,,,,,,,False,,5ac5c73f-2c26-402b-9766-8e1180ece530
70,,,,,,,,,,False,,d3cda3b2-1c4e-4428-9f6e-73709843d38b
71,,,,,,,,,,False,,b2c62972-e4e8-4a1d-ae7a-f37daae39c6c
72,,,,,,,,,,False,,18cc27f8-cb50-484d-99f5-76e0440aab0b
73,,,,,,,,,,False,,3506edef-2461-4504-ac6e-362e8c8143d5
74,,,,,,,,,,False,,6dcd7bf4-b5a9-4b8a-8fce-f895368c3414
75,,,,,,,,,,False,,33fe34f0-5a9f-46ee-9265-7c8cfa0f8c1c
76,,,,,,,,,,False,,0d8e24bf-67c6-46f7-8b30-75da7139fd00
77,,,,,,,,,,False,,9312a69e-2474-4ff1-977d-3c36f7166344
78,,,,,,,,,,False,,3f973468-76c3-478a-b48a-a486b33db992
79,,,,,,,,,,False,,e9cc8609-f815-4d54-8383-ac3203f931c3
80,,,,,,,,,,False,,28f34b22-88a7-41fb-aec2-b5f8493a435c
81,,,,,,,,,,False,,440497c2-e1de-4e70-9bbb-ec7433372093
82,,,,,,,,,,False,,69297738-a69c-485c-b145-b4be8647c219
83,,,,,,,,,,False,,f19b0eb9-9a0c-40b8-87ec-ccc263bd0e60
84,,,,,,,,,,False,,60e500ff-42b9-414b-ae20-8a7ef398bda5
85,,,,,,,,,,False,,bbcea470-6787-49e3-81a1-54984c88af2f
86,,,,,,,,,,False,,1f43e58f-cd40-4699-be70-f79d76a949a5
87,,,,,,,,,,False,,85966720-bdc1-449d-9e44-1601959e905a
88,,,,,,,,,,False,,78d4ce40-d15b-465d-aeb8-b728d3eaf8b4
89,,,,,,,,,,False,,8532068b-4590-4915-89e7-379530ab5e39
90,,,,,,,,,,False,,a0a307be-5016-4ab3-9659-f88b9a36f4db
91,,,,,,,,,,False,,559243d7-409b-4b2a-913c-7a1f8721fe34
92,,,,,,,,,,False,,cfcc6965-cbd9-4175-937b-cdc59e42e5a2
93,,,,,,,,,,False,,7f19f003-20a8-41d8-9991-e3b65b94f2ee
94,,,,,,,,,,False,,645f7178-6afe-4efb-8b4f-4fc71841cb61
95,,,,,,,,,,False,,6c52cb81-8af6-46b1-8d80-e0b8a38fecf1
96,,,,,,,,,,False,,a086b592-193e-4c33-a18e-c53f1050c1dd
97,,,,,,,,,,False,,1a55c0c0-2182-4b89-b88c-36b9daec0767
98,,,,,,,,,,False,,2d7974e8-9573-4b31-9f6c-e4f83cc0cfd6
99,,,,,,,,,,False,,3577a6d0-c09f-485d-8ba5-8ec5914cffc4
100,,,,,,,,,,False,,afc68097-38fb-4428-a100-669a3e105ff3
101,,,,,,,,,,False,,b9db8c78-36ae-4b22-8d13-167ac92b1639
102,,,,,,,,,,False,,0ac22e28-825f-473c-9540-4fcb5ce492e4
103,,,,,,,,,,False,,c58c779e-5451-4871-b079-c5d2d6cc5d96
104,,,,,,,,,,False,,9c06afc9-51dd-476d-959f-8e3f308c59f9
105,,,,,,,,,,False,,fdd9f9c8-2e60-495b-9e0d-adcb79874423
106,,,,,,,,,,False,,68a16a5b-55b6-444e-aedd-5be8a05aac25
107,,,,,,,,,,False,,f4841f21-2975-4664-88ff-4ce499c76527
108,,,,,,,,,,False,,e9cb7d3c-4ae0-44dc-93e9-32bf145b697e
109,,,,,,,,,,False,,e5fc2436-d421-4bdc-b286-420d2ae132d3
110,,,,,,,,,,False,,1f14f133-be2b-431b-9968-6204125035b2
111,,,,,,,,,,False,,41c13da7-7ba9-41f5-90a5-8b8e455de0e2
112,,,,,,,,,,False,,681fe59c-f049-4010-a508-d76b40a80682
113,,,,,,,,,,False,,b4e38aab-192a-4c6d-99ea-cecd93704ad5
114,,,,,,,,,,False,,738897fb-65e3-44b4-8c1e-1c459e862618
115,,,,,,,,,,False,,041b69dd-bdcd-4f19-ab94-23319484441a
116,,,,,,,,,,False,,e513a79e-4cec-4c53-bd26-379589959366
117,,,,,,,,,,False,,b6c86bb1-ac9a-4dd6-a8db-ca1f14529947
118,,,,,,,,,,False,,2f78a5e0-674d-4c82-99f7-dcc117b3e5e3
119,,,,,,,,,,False,,52594d9f-5362-4264-a5f0-2f136760896e
120,,,,,,,,,,False,,24ad07b9-9715-4785-81f7-6ea0fa75f49d
121,,,,,,,,,,False,,15f4d1f7-d18f-403d-a2a1-aae355e86c1a
122,,,,,,,,,,False,,88d67c1f-3cd0-4b78-94b9-072366592104
